start=new Date('2021-12-22T00:00:00.000Z').valueOf();
sats=[{"OBJECT_TYPE":"PAYLOAD","REF_FRAME":"TEME","MEAN_MOTION_DDOT":"0.0000000000000","PERIOD":"91.264","TLE_LINE1":"1 46775U 20074AN  21355.50052889  .00165691  00000-0  94839-3 0  9999","OBJECT_NAME":"STARLINK-1945","REV_AT_EPOCH":"6476","DECAY_DATE":null,"MEAN_MOTION_DOT":"0.00165691","APOAPSIS":"337.762","RA_OF_ASC_NODE":"25.3228","CENTER_NAME":"EARTH","RCS_SIZE":"LARGE","TIME_SYSTEM":"UTC","LAUNCH_DATE":"2020-10-24","BSTAR":"0.00094839000000","INCLINATION":"53.0565","ECCENTRICITY":"0.00018100","CLASSIFICATION_TYPE":"U","FILE":"3246489","SEMIMAJOR_AXIS":"6714.682","COUNTRY_CODE":"US","TLE_LINE2":"2 46775  53.0565  25.3228 0001810  30.2484 329.8640 15.77846081 64760","SITE":"AFETR","MEAN_ANOMALY":"329.8640","ARG_OF_PERICENTER":"30.2484","GP_ID":"192148054","EPOCH":"2021-12-21T12:00:45.696096","MEAN_ELEMENT_THEORY":"SGP4","NORAD_CAT_ID":"46775","PERIAPSIS":"335.331","OBJECT_ID":"2020-074AN","MEAN_MOTION":"15.77846081","EPHEMERIS_TYPE":"0","ELEMENT_SET_NO":"999"},{"COUNTRY_CODE":"US","SEMIMAJOR_AXIS":"6925.336","FILE":"3246784","CLASSIFICATION_TYPE":"U","ECCENTRICITY":"0.00014800","ELEMENT_SET_NO":"999","EPHEMERIS_TYPE":"0","MEAN_MOTION":"15.06404040","OBJECT_ID":"2020-074AP","PERIAPSIS":"546.176","NORAD_CAT_ID":"46776","MEAN_ELEMENT_THEORY":"SGP4","EPOCH":"2021-12-21T15:29:38.632992","GP_ID":"192179215","ARG_OF_PERICENTER":"81.6397","MEAN_ANOMALY":"278.4759","SITE":"AFETR","TLE_LINE2":"2 46776  53.0546  45.6543 0001480  81.6397 278.4759 15.06404040 64498","DECAY_DATE":null,"REV_AT_EPOCH":"6449","OBJECT_NAME":"STARLINK-1946","TLE_LINE1":"1 46776U 20074AP  21355.64558603  .00000243  00000-0  35177-4 0  9992","PERIOD":"95.592","MEAN_MOTION_DDOT":"0.0000000000000","REF_FRAME":"TEME","OBJECT_TYPE":"PAYLOAD","INCLINATION":"53.0546","BSTAR":"0.00003517700000","LAUNCH_DATE":"2020-10-24","TIME_SYSTEM":"UTC","RCS_SIZE":"LARGE","CENTER_NAME":"EARTH","RA_OF_ASC_NODE":"45.6543","APOAPSIS":"548.226","MEAN_MOTION_DOT":"0.00000243"},{"COUNTRY_CODE":"US","ECCENTRICITY":"0.00013230","FILE":"3246784","SEMIMAJOR_AXIS":"6925.334","CLASSIFICATION_TYPE":"U","OBJECT_ID":"2020-074AS","MEAN_MOTION":"15.06404635","NORAD_CAT_ID":"46779","PERIAPSIS":"546.283","ELEMENT_SET_NO":"999","EPHEMERIS_TYPE":"0","MEAN_ANOMALY":"296.6093","TLE_LINE2":"2 46779  53.0550  20.8815 0001323  63.5031 296.6093 15.06404635 64834","SITE":"AFETR","EPOCH":"2021-12-21T14:16:00.092928","MEAN_ELEMENT_THEORY":"SGP4","ARG_OF_PERICENTER":"63.5031","GP_ID":"192177464","OBJECT_NAME":"STARLINK-1798","REV_AT_EPOCH":"6483","DECAY_DATE":null,"OBJECT_TYPE":"PAYLOAD","REF_FRAME":"TEME","TLE_LINE1":"1 46779U 20074AS  21355.59444552  .00000160  00000-0  29655-4 0  9998","MEAN_MOTION_DDOT":"0.0000000000000","PERIOD":"95.592","BSTAR":"0.00002965500000","INCLINATION":"53.0550","TIME_SYSTEM":"UTC","LAUNCH_DATE":"2020-10-24","APOAPSIS":"548.116","MEAN_MOTION_DOT":"0.00000160","RCS_SIZE":"LARGE","RA_OF_ASC_NODE":"20.8815","CENTER_NAME":"EARTH"},{"TLE_LINE2":"2 46780  53.0567  20.9362 0001545  62.1145 298.0000 15.06404254 64830","SITE":"AFETR","MEAN_ANOMALY":"298.0000","GP_ID":"192177714","ARG_OF_PERICENTER":"62.1145","EPOCH":"2021-12-21T14:00:04.418208","MEAN_ELEMENT_THEORY":"SGP4","PERIAPSIS":"546.131","NORAD_CAT_ID":"46780","MEAN_MOTION":"15.06404254","OBJECT_ID":"2020-074AT","EPHEMERIS_TYPE":"0","ELEMENT_SET_NO":"999","ECCENTRICITY":"0.00015450","CLASSIFICATION_TYPE":"U","SEMIMAJOR_AXIS":"6925.336","FILE":"3246784","COUNTRY_CODE":"US","MEAN_MOTION_DOT":"0.00000620","APOAPSIS":"548.270","CENTER_NAME":"EARTH","RA_OF_ASC_NODE":"20.9362","RCS_SIZE":"LARGE","LAUNCH_DATE":"2020-10-24","TIME_SYSTEM":"UTC","INCLINATION":"53.0567","BSTAR":"0.00006053200000","REF_FRAME":"TEME","OBJECT_TYPE":"PAYLOAD","PERIOD":"95.592","MEAN_MOTION_DDOT":"0.0000000000000","TLE_LINE1":"1 46780U 20074AT  21355.58338447  .00000620  00000-0  60532-4 0  9994","REV_AT_EPOCH":"6483","OBJECT_NAME":"STARLINK-1832","DECAY_DATE":null},{"INCLINATION":"53.0548","BSTAR":"-0.00007388900000","LAUNCH_DATE":"2020-10-24","TIME_SYSTEM":"UTC","RCS_SIZE":"LARGE","CENTER_NAME":"EARTH","RA_OF_ASC_NODE":"30.8611","APOAPSIS":"548.263","MEAN_MOTION_DOT":"-0.00001382","DECAY_DATE":null,"REV_AT_EPOCH":"6470","OBJECT_NAME":"STARLINK-1834","TLE_LINE1":"1 46781U 20074AU  21355.60089278 -.00001382  00000-0 -73889-4 0  9990","PERIOD":"95.592","MEAN_MOTION_DDOT":"0.0000000000000","REF_FRAME":"TEME","OBJECT_TYPE":"PAYLOAD","ELEMENT_SET_NO":"999","EPHEMERIS_TYPE":"0","MEAN_MOTION":"15.06398099","OBJECT_ID":"2020-074AU","PERIAPSIS":"546.176","NORAD_CAT_ID":"46781","MEAN_ELEMENT_THEORY":"SGP4","EPOCH":"2021-12-21T14:25:17.136192","GP_ID":"192178463","ARG_OF_PERICENTER":"69.1230","MEAN_ANOMALY":"290.9921","TLE_LINE2":"2 46781  53.0548  30.8611 0001507  69.1230 290.9921 15.06398099 64705","SITE":"AFETR","COUNTRY_CODE":"US","SEMIMAJOR_AXIS":"6925.354","FILE":"3246784","CLASSIFICATION_TYPE":"U","ECCENTRICITY":"0.00015070"},{"RCS_SIZE":"LARGE","RA_OF_ASC_NODE":"21.2795","CENTER_NAME":"EARTH","APOAPSIS":"548.132","MEAN_MOTION_DOT":"0.00000868","BSTAR":"0.00007714100000","INCLINATION":"53.0540","TIME_SYSTEM":"UTC","LAUNCH_DATE":"2020-10-24","TLE_LINE1":"1 46782U 20074AV  21355.50597778  .00000868  00000-0  77141-4 0  9990","MEAN_MOTION_DDOT":"0.0000000000000","PERIOD":"95.592","OBJECT_TYPE":"PAYLOAD","REF_FRAME":"TEME","DECAY_DATE":null,"OBJECT_NAME":"STARLINK-1835","REV_AT_EPOCH":"6482","MEAN_ELEMENT_THEORY":"SGP4","EPOCH":"2021-12-21T12:08:36.480192","ARG_OF_PERICENTER":"64.8079","GP_ID":"192148806","MEAN_ANOMALY":"295.3049","TLE_LINE2":"2 46782  53.0540  21.2795 0001344  64.8079 295.3049 15.06404077 64824","SITE":"AFETR","ELEMENT_SET_NO":"999","EPHEMERIS_TYPE":"0","OBJECT_ID":"2020-074AV","MEAN_MOTION":"15.06404077","NORAD_CAT_ID":"46782","PERIAPSIS":"546.270","FILE":"3246489","SEMIMAJOR_AXIS":"6925.336","CLASSIFICATION_TYPE":"U","ECCENTRICITY":"0.00013440","COUNTRY_CODE":"US"},{"PERIOD":"95.592","MEAN_MOTION_DDOT":"0.0000000000000","TLE_LINE1":"1 46783U 20074AW  21355.45437525  .00002851  00000-0  21015-3 0  9990","REF_FRAME":"TEME","OBJECT_TYPE":"PAYLOAD","DECAY_DATE":null,"REV_AT_EPOCH":"6481","OBJECT_NAME":"STARLINK-1851","CENTER_NAME":"EARTH","RA_OF_ASC_NODE":"21.5205","RCS_SIZE":"LARGE","MEAN_MOTION_DOT":"0.00002851","APOAPSIS":"548.301","LAUNCH_DATE":"2020-10-24","TIME_SYSTEM":"UTC","INCLINATION":"53.0547","BSTAR":"0.00021015000000","CLASSIFICATION_TYPE":"U","SEMIMAJOR_AXIS":"6925.320","FILE":"3246489","ECCENTRICITY":"0.00016120","COUNTRY_CODE":"US","GP_ID":"192148554","ARG_OF_PERICENTER":"66.0051","EPOCH":"2021-12-21T10:54:18.021600","MEAN_ELEMENT_THEORY":"SGP4","TLE_LINE2":"2 46783  53.0547  21.5205 0001612  66.0051 294.1107 15.06409432 64814","SITE":"AFETR","MEAN_ANOMALY":"294.1107","EPHEMERIS_TYPE":"0","ELEMENT_SET_NO":"999","PERIAPSIS":"546.068","NORAD_CAT_ID":"46783","MEAN_MOTION":"15.06409432","OBJECT_ID":"2020-074AW"},{"PERIOD":"95.592","MEAN_MOTION_DDOT":"0.0000000000000","TLE_LINE1":"1 46784U 20074AX  21355.45806564  .00001193  00000-0  98966-4 0  9992","REF_FRAME":"TEME","OBJECT_TYPE":"PAYLOAD","DECAY_DATE":null,"REV_AT_EPOCH":"6481","OBJECT_NAME":"STARLINK-1882","CENTER_NAME":"EARTH","RA_OF_ASC_NODE":"21.4910","RCS_SIZE":"LARGE","MEAN_MOTION_DOT":"0.00001193","APOAPSIS":"548.231","LAUNCH_DATE":"2020-10-24","TIME_SYSTEM":"UTC","INCLINATION":"53.0571","BSTAR":"0.00009896600000","CLASSIFICATION_TYPE":"U","SEMIMAJOR_AXIS":"6925.337","FILE":"3246489","ECCENTRICITY":"0.00014860","COUNTRY_CODE":"US","GP_ID":"192147805","ARG_OF_PERICENTER":"60.1731","EPOCH":"2021-12-21T10:59:36.871296","MEAN_ELEMENT_THEORY":"SGP4","SITE":"AFETR","TLE_LINE2":"2 46784  53.0571  21.4910 0001486  60.1731 299.9405 15.06403816 64817","MEAN_ANOMALY":"299.9405","EPHEMERIS_TYPE":"0","ELEMENT_SET_NO":"999","PERIAPSIS":"546.173","NORAD_CAT_ID":"46784","MEAN_MOTION":"15.06403816","OBJECT_ID":"2020-074AX"},{"ELEMENT_SET_NO":"999","EPHEMERIS_TYPE":"0","OBJECT_ID":"2020-074AY","MEAN_MOTION":"15.06407203","NORAD_CAT_ID":"46785","PERIAPSIS":"545.363","MEAN_ELEMENT_THEORY":"SGP4","EPOCH":"2021-12-21T13:49:27.073920","ARG_OF_PERICENTER":"45.9745","GP_ID":"192178963","MEAN_ANOMALY":"314.1461","SITE":"AFETR","TLE_LINE2":"2 46785  53.0541  20.9810 0002640  45.9745 314.1461 15.06407203 64835","COUNTRY_CODE":"US","FILE":"3246784","SEMIMAJOR_AXIS":"6925.326","CLASSIFICATION_TYPE":"U","ECCENTRICITY":"0.00026400","BSTAR":"0.00015894000000","INCLINATION":"53.0541","TIME_SYSTEM":"UTC","LAUNCH_DATE":"2020-10-24","RCS_SIZE":"LARGE","RA_OF_ASC_NODE":"20.9810","CENTER_NAME":"EARTH","APOAPSIS":"549.020","MEAN_MOTION_DOT":"0.00002087","DECAY_DATE":null,"OBJECT_NAME":"STARLINK-1883","REV_AT_EPOCH":"6483","TLE_LINE1":"1 46785U 20074AY  21355.57600780  .00002087  00000-0  15894-3 0  9999","MEAN_MOTION_DDOT":"0.0000000000000","PERIOD":"95.592","OBJECT_TYPE":"PAYLOAD","REF_FRAME":"TEME"},{"BSTAR":"0.00019750000000","INCLINATION":"53.0564","TIME_SYSTEM":"UTC","LAUNCH_DATE":"2020-10-24","APOAPSIS":"549.073","MEAN_MOTION_DOT":"0.00002662","RCS_SIZE":"LARGE","RA_OF_ASC_NODE":"1.3496","CENTER_NAME":"EARTH","OBJECT_NAME":"STARLINK-1893","REV_AT_EPOCH":"6510","DECAY_DATE":null,"OBJECT_TYPE":"PAYLOAD","REF_FRAME":"TEME","TLE_LINE1":"1 46786U 20074AZ  21355.48938745  .00002662  00000-0  19750-3 0  9999","MEAN_MOTION_DDOT":"0.0000000000000","PERIOD":"95.591","OBJECT_ID":"2020-074AZ","MEAN_MOTION":"15.06415000","NORAD_CAT_ID":"46786","PERIAPSIS":"545.262","ELEMENT_SET_NO":"999","EPHEMERIS_TYPE":"0","MEAN_ANOMALY":"190.0233","TLE_LINE2":"2 46786  53.0564   1.3496 0002752 170.0811 190.0233 15.06415000 65105","SITE":"AFETR","EPOCH":"2021-12-21T11:44:43.075680","MEAN_ELEMENT_THEORY":"SGP4","ARG_OF_PERICENTER":"170.0811","GP_ID":"192148306","COUNTRY_CODE":"US","ECCENTRICITY":"0.00027520","FILE":"3246489","SEMIMAJOR_AXIS":"6925.303","CLASSIFICATION_TYPE":"U"}];
